NORAD_CAT_ID,OBJECT_NAME,OBJECT_TYPE,EPOCH,MEAN_MOTION,ECCENTRICITY,INCLINATION,RA_OF_ASC_NODE,ARG_OF_PERICENTER,MEAN_ANOMALY,BSTAR,MEAN_MOTION_DOT,MEAN_MOTION_DDOT,TLE_LINE0,TLE_LINE1,TLE_LINE2,SEMIMAJOR_AXIS,PERIOD,APOGEE,PERIGEE,DECAYED
50816.0,STARLINK-3342,PAYLOAD,2023-10-29 02:38:05,15.08845055,0.0001427,53.218,81.3911,88.5548,271.5608,1.9861e-05,2.8e-07,0.0,0 STARLINK-3342,1 50816U 22001P   23302.10979037  .00000028  00000-0  19861-4 0  9990,2 50816  53.2180  81.3911 0001427  88.5548 271.5608 15.08845055101468,6917.865,95.437,540.717,538.743,0.0
50816.0,STARLINK-3342,PAYLOAD,2023-10-29 13:45:47,15.0884998,0.0001342,53.2165,79.3097,94.7277,265.3868,0.0002269,3.326e-05,0.0,0 STARLINK-3342,1 50816U 22001P   23302.57346511  .00003326  00000-0  22690-3 0  9993,2 50816  53.2165  79.3097 0001342  94.7277 265.3868 15.08849980100253,6917.85,95.437,540.643,538.787,0.0
50816.0,STARLINK-3342,PAYLOAD,2023-10-29 16:56:33,15.08859822,0.0001315,53.2173,78.7135,87.8432,272.2711,0.0003096,4.645e-05,0.0,0 STARLINK-3342,1 50816U 22001P   23302.70593952  .00004645  00000-0  30960-3 0  9995,2 50816  53.2173  78.7135 0001315  87.8432 272.2711 15.08859822101558,6917.82,95.436,540.594,538.775,0.0
50816.0,STARLINK-3342,PAYLOAD,2023-10-30 12:01:12,15.08825935,0.0001291,53.2158,75.1459,82.506,277.6079,2.17e-05,5.7e-07,0.0,0 STARLINK-3342,1 50816U 22001P   23303.50083916  .00000057  00000-0  21700-4 0  9994,2 50816  53.2158  75.1459 0001291  82.5060 277.6079 15.08825935101670,6917.923,95.438,540.681,538.895,0.0
50816.0,STARLINK-3342,PAYLOAD,2023-10-30 15:11:58,15.08827086,0.0001133,53.2159,74.5514,82.9952,277.1169,4.0184e-05,3.52e-06,0.0,0 STARLINK-3342,1 50816U 22001P   23303.63331926  .00000352  00000-0  40184-4 0  9990,2 50816  53.2159  74.5514 0001133  82.9952 277.1169 15.08827086100410,6917.92,95.438,540.569,539.001,0.0
50816.0,STARLINK-3342,PAYLOAD,2023-10-31 02:19:40,15.08836431,0.0001283,53.2176,72.469,88.5419,271.572,4.9727e-05,5.04e-06,0.0,0 STARLINK-3342,1 50816U 22001P   23304.09699670  .00000504  00000-0  49727-4 0  9995,2 50816  53.2176  72.4690 0001283  88.5419 271.5720 15.08836431101761,6917.891,95.438,540.644,538.869,0.0
50816.0,STARLINK-3342,PAYLOAD,2023-10-31 15:02:45,15.088473,0.0001388,53.2175,70.0893,91.1154,268.9997,9.7045e-05,1.257e-05,0.0,0 STARLINK-3342,1 50816U 22001P   23304.62691231  .00001257  00000-0  97045-4 0  9991,2 50816  53.2175  70.0893 0001388  91.1154 268.9997 15.08847300100561,6917.858,95.437,540.683,538.763,0.0
50816.0,STARLINK-3342,PAYLOAD,2023-11-01 11:42:46,15.08838091,0.0001486,53.2169,66.2249,79.021,281.095,0.0002217,3.242e-05,0.0,0 STARLINK-3342,1 50816U 22001P   23305.48803934  .00003242  00000-0  22170-3 0  9993,2 50816  53.2169  66.2249 0001486  79.0210 281.0950 15.08838091101971,6917.886,95.438,540.779,538.723,0.0
50816.0,STARLINK-3342,PAYLOAD,2023-11-01 14:53:32,15.08840496,0.0001369,53.2173,65.6298,80.0794,280.0353,0.00027507,4.093e-05,0.0,0 STARLINK-3342,1 50816U 22001P   23305.62051809  .00004093  00000-0  27507-3 0  9999,2 50816  53.2173  65.6298 0001369  80.0794 280.0353 15.08840496100711,6917.879,95.438,540.691,538.797,0.0
50816.0,STARLINK-3342,PAYLOAD,2023-11-02 13:08:56,15.08842808,0.000147,53.2181,61.4692,80.1743,279.9415,9.5175e-05,1.227e-05,0.0,0 STARLINK-3342,1 50816U 22001P   23306.54787737  .00001227  00000-0  95175-4 0  9990,2 50816  53.2181  61.4692 0001470  80.1743 279.9415 15.08842808102133,6917.872,95.437,540.754,538.72,0.0
50816.0,STARLINK-3342,PAYLOAD,2023-11-02 14:44:19,15.08847391,0.0001425,53.2177,61.1695,79.8978,280.2175,0.00014864,2.079e-05,0.0,0 STARLINK-3342,1 50816U 22001P   23306.61411440  .00002079  00000-0  14864-3 0  9994,2 50816  53.2177  61.1695 0001425  79.8978 280.2175 15.08847391100861,6917.858,95.437,540.709,538.737,0.0
50816.0,STARLINK-3342,PAYLOAD,2023-11-03 14:35:06,15.08842643,0.0001408,53.2192,56.714,85.3032,274.8121,0.0001066,1.409e-05,0.0,0 STARLINK-3342,1 50816U 22001P   23307.60771803  .00001409  00000-0  10660-3 0  9992,2 50816  53.2192  56.7140 0001408  85.3032 274.8121 15.08842643101010,6917.872,95.437,540.711,538.763,0.0
50816.0,STARLINK-3342,PAYLOAD,2023-11-04 09:39:45,15.08835774,0.0001585,53.2175,53.1406,80.4178,279.6993,-2.0928e-05,-6.21e-06,0.0,0 STARLINK-3342,1 50816U 22001P   23308.40260598 -.00000621  00000-0 -20928-4 0  9991,2 50816  53.2175  53.1406 0001585  80.4178 279.6993 15.08835774102412,6917.893,95.438,540.855,538.662,0.0
50816.0,STARLINK-3342,PAYLOAD,2023-11-04 14:25:53,15.08845055,0.0001442,53.2178,52.2497,85.713,274.4027,7.0496e-05,8.34e-06,0.0,0 STARLINK-3342,1 50816U 22001P   23308.60131777  .00000834  00000-0  70496-4 0  9998,2 50816  53.2178  52.2497 0001442  85.7130 274.4027 15.08845055101168,6917.865,95.437,540.727,538.732,0.0
50816.0,STARLINK-3342,PAYLOAD,2023-11-05 14:16:40,15.08858748,0.0001514,53.2169,47.7899,88.167,271.9495,0.0002782,4.145e-05,0.0,0 STARLINK-3342,1 50816U 22001P   23309.59490849  .00004145  00000-0  27820-3 0  9996,2 50816  53.2169  47.7899 0001514  88.1670 271.9495 15.08858748101310,6917.823,95.436,540.735,538.641,0.0
50816.0,STARLINK-3342,PAYLOAD,2023-11-06 12:32:06,15.08801977,0.0001497,53.218,43.6227,89.5893,270.5271,-0.00047617,-7.85e-05,0.0,0 STARLINK-3342,1 50816U 22001P   23310.52229260 -.00007850  00000-0 -47617-3 0  9992,2 50816  53.2180  43.6227 0001497  89.5893 270.5271 15.08801977102731,6917.997,95.44,540.897,538.826,0.0
50816.0,STARLINK-3342,PAYLOAD,2023-11-06 14:07:29,15.08801523,0.0001398,53.218,43.3263,85.5614,274.5538,-0.00057961,-9.491e-05,0.0,0 STARLINK-3342,1 50816U 22001P   23310.58853400 -.00009491  00000-0 -57961-3 0  9993,2 50816  53.2180  43.3263 0001398  85.5614 274.5538 15.08801523101461,6917.998,95.44,540.83,538.896,0.0
50816.0,STARLINK-3342,PAYLOAD,2023-11-06 23:39:48,15.08808213,0.0001247,53.2177,41.5458,85.9523,274.1611,-0.00032456,-5.445e-05,0.0,0 STARLINK-3342,1 50816U 22001P   23310.98598147 -.00005445  00000-0 -32456-3 0  9998,2 50816  53.2177  41.5458 0001247  85.9523 274.1611 15.08808213102809,6917.978,95.44,540.705,538.98,0.0
50816.0,STARLINK-3342,PAYLOAD,2023-11-07 12:22:53,15.08834938,0.0001669,53.2191,39.1654,82.0768,278.0414,-6.4848e-05,-1.32e-05,0.0,0 STARLINK-3342,1 50816U 22001P   23311.51589557 -.00001320  00000-0 -64848-4 0  9992,2 50816  53.2191  39.1654 0001669  82.0768 278.0414 15.08834938102888,6917.896,95.438,540.915,538.606,0.0
50816.0,STARLINK-3342,PAYLOAD,2023-11-08 12:13:41,15.0883652,0.0001541,53.2182,34.7059,65.9979,294.1174,0.00074073,0.00011519,0.0,0 STARLINK-3342,1 50816U 22001P   23312.50950258  .00011519  00000-0  74073-3 0  9991,2 50816  53.2182  34.7059 0001541  65.9979 294.1174 15.08836520101757,6917.891,95.438,540.822,538.69,0.0
50816.0,STARLINK-3342,PAYLOAD,2023-11-09 10:29:04,15.08855489,0.0001526,53.2177,30.5446,61.9278,298.1868,9.2264e-05,1.181e-05,0.0,0 STARLINK-3342,1 50816U 22001P   23313.43685502  .00001181  00000-0  92264-4 0  9998,2 50816  53.2177  30.5446 0001526  61.9278 298.1868 15.08855489101890,6917.833,95.437,540.754,538.642,0.0
50816.0,STARLINK-3342,PAYLOAD,2023-11-10 10:19:51,15.08846631,0.0001292,53.2175,26.0832,85.4688,274.6452,-1.5855e-05,-5.4e-06,0.0,0 STARLINK-3342,1 50816U 22001P   23314.43045489 -.00000540  00000-0 -15855-4 0  9994,2 50816  53.2175  26.0832 0001292  85.4688 274.6452 15.08846631103320,6917.86,95.437,540.619,538.831,0.0
50816.0,STARLINK-3342,PAYLOAD,2023-11-11 11:46:00,15.08853291,0.0001523,53.2173,21.3255,96.9919,263.1246,8.4313e-05,1.055e-05,0.0,0 STARLINK-3342,1 50816U 22001P   23315.49028255  .00001055  00000-0  84313-4 0  9998,2 50816  53.2173  21.3255 0001523  96.9919 263.1246 15.08853291103487,6917.84,95.437,540.758,538.651,0.0
50816.0,STARLINK-3342,PAYLOAD,2023-11-11 21:18:19,15.08841606,0.0001279,53.2173,19.5413,87.4646,272.6492,4.9031e-05,4.93e-06,0.0,0 STARLINK-3342,1 50816U 22001P   23315.88772895  .00000493  00000-0  49031-4 0  9990,2 50816  53.2173  19.5413 0001279  87.4646 272.6492 15.08841606102262,6917.875,95.437,540.625,538.856,0.0
50816.0,STARLINK-3342,PAYLOAD,2023-11-11 22:53:42,15.08839397,0.0001289,53.2176,19.2443,84.7195,275.3944,6.6148e-05,7.65e-06,0.0,0 STARLINK-3342,1 50816U 22001P   23315.95396987  .00000765  00000-0  66148-4 0  9992,2 50816  53.2176  19.2443 0001289  84.7195 275.3944 15.08839397103554,6917.882,95.438,540.639,538.856,0.0
50816.0,STARLINK-3342,PAYLOAD,2023-11-12 11:36:42,15.08914305,8.84e-05,53.2174,16.8647,122.2438,237.864,0.0007067,0.00011,0.0,0 STARLINK-3342,1 50816U 22001P   23316.48382837  .00011000  00000-0  70670-3 0  9998,2 50816  53.2174  16.8647 0000884 122.2438 237.8640 15.08914305103637,6917.653,95.433,540.13,538.907,0.0
50816.0,STARLINK-3342,PAYLOAD,2023-11-12 13:12:10,15.08846596,0.0001269,53.2174,16.5677,87.7479,272.3659,0.00012575,1.714e-05,0.0,0 STARLINK-3342,1 50816U 22001P   23316.55012567  .00001714  00000-0  12575-3 0  9997,2 50816  53.2174  16.5677 0001269  87.7479 272.3659 15.08846596102364,6917.86,95.437,540.603,538.847,0.0
50816.0,STARLINK-3342,PAYLOAD,2023-11-12 16:22:57,15.08847422,0.0001222,53.2179,15.9722,94.9428,265.1704,0.00012225,1.659e-05,0.0,0 STARLINK-3342,1 50816U 22001P   23316.68260489  .00001659  00000-0  12225-3 0  9999,2 50816  53.2179  15.9722 0001222  94.9428 265.1704 15.08847422103660,6917.858,95.437,540.568,538.877,0.0
50816.0,STARLINK-3342,PAYLOAD,2023-11-12 21:09:07,15.08834114,0.0001281,53.2179,15.0813,91.4538,268.6601,3.0275e-05,1.94e-06,0.0,0 STARLINK-3342,1 50816U 22001P   23316.88133605  .00000194  00000-0  30275-4 0  9999,2 50816  53.2179  15.0813 0001281  91.4538 268.6601 15.08834114102411,6917.898,95.438,540.65,538.877,0.0
50816.0,STARLINK-3342,PAYLOAD,2023-11-13 03:30:39,15.08840834,0.0001253,53.2194,13.8919,91.2051,268.9084,2.0662e-05,4.1e-07,0.0,0 STARLINK-3342,1 50816U 22001P   23317.14629263  .00000041  00000-0  20662-4 0  9999,2 50816  53.2194  13.8919 0001253  91.2051 268.9084 15.08840834103738,6917.878,95.438,540.61,538.876,0.0
